[{"OBJECT_NAME":"TIANZHOU-6","OBJECT_ID":"2023-063A","EPOCH":"2023-09-15T11:12:26.528544","MEAN_MOTION":15.62277228,"ECCENTRICITY":0.0008583,"INCLINATION":41.4746,"RA_OF_ASC_NODE":326.7477,"ARG_OF_PERICENTER":21.4798,"MEAN_ANOMALY":338.64,"EPHEMERIS_TYPE":0,"CLASSIFICATION_TYPE":"U","NORAD_CAT_ID":56446,"ELEMENT_SET_NO":999,"REV_AT_EPOCH":13594,"BSTAR":0.00032414,"MEAN_MOTION_DOT":0.00029249,"MEAN_MOTION_DDOT":0},{"OBJECT_NAME":"PROGRESS-MS 23","OBJECT_ID":"2023-071A","EPOCH":"2023-09-15T09:57:44.907840","MEAN_MOTION":15.49298881,"ECCENTRICITY":0.0005745,"INCLINATION":51.6411,"RA_OF_ASC_NODE":241.5794,"ARG_OF_PERICENTER":20.8373,"MEAN_ANOMALY":139.0145,"EPHEMERIS_TYPE":0,"CLASSIFICATION_TYPE":"U","NORAD_CAT_ID":56740,"ELEMENT_SET_NO":999,"REV_AT_EPOCH":41578,"BSTAR":0.00032632,"MEAN_MOTION_DOT":0.00017764,"MEAN_MOTION_DDOT":0},{"OBJECT_NAME":"SHENZHOU-16 (SZ-16)","OBJECT_ID":"2023-077A","EPOCH":"2023-09-15T11:12:26.528544","MEAN_MOTION":15.62277228,"ECCENTRICITY":0.0008583,"INCLINATION":41.4746,"RA_OF_ASC_NODE":326.7477,"ARG_OF_PERICENTER":21.4798,"MEAN_ANOMALY":338.64,"EPHEMERIS_TYPE":0,"CLASSIFICATION_TYPE":"U","NORAD_CAT_ID":56761,"ELEMENT_SET_NO":999,"REV_AT_EPOCH":13594,"BSTAR":0.00032414,"MEAN_MOTION_DOT":0.00029249,"MEAN_MOTION_DDOT":0},{"OBJECT_NAME":"ISS DEB","OBJECT_ID":"1998-067VP","EPOCH":"2023-09-15T06:07:40.653696","MEAN_MOTION":15.54729312,"ECCENTRICITY":0.0006505,"INCLINATION":51.6372,"RA_OF_ASC_NODE":240.857,"ARG_OF_PERICENTER":41.6905,"MEAN_ANOMALY":318.458,"EPHEMERIS_TYPE":0,"CLASSIFICATION_TYPE":"U","NORAD_CAT_ID":57212,"ELEMENT_SET_NO":999,"REV_AT_EPOCH":1271,"BSTAR":0.00056532,"MEAN_MOTION_DOT":0.00037981,"MEAN_MOTION_DDOT":0},{"OBJECT_NAME":"1998-067VQ","OBJECT_ID":"1998-067VQ","EPOCH":"2023-09-15T15:46:14.312640","MEAN_MOTION":15.57786895,"ECCENTRICITY":0.00056,"INCLINATION":51.6371,"RA_OF_ASC_NODE":238.2926,"ARG_OF_PERICENTER":98.363,"MEAN_ANOMALY":261.7997,"EPHEMERIS_TYPE":0,"CLASSIFICATION_TYPE":"U","NORAD_CAT_ID":57312,"ELEMENT_SET_NO":999,"REV_AT_EPOCH":1108,"BSTAR":0.00086897,"MEAN_MOTION_DOT":0.00065944,"MEAN_MOTION_DDOT":0},{"OBJECT_NAME":"1998-067VR","OBJECT_ID":"1998-067VR","EPOCH":"2023-09-15T16:04:07.919904","MEAN_MOTION":15.5708691,"ECCENTRICITY":0.0003465,"INCLINATION":51.6374,"RA_OF_ASC_NODE":238.3762,"ARG_OF_PERICENTER":92.993,"MEAN_ANOMALY":267.1458,"EPHEMERIS_TYPE":0,"CLASSIFICATION_TYPE":"U","NORAD_CAT_ID":57313,"ELEMENT_SET_NO":999,"REV_AT_EPOCH":1109,"BSTAR":0.0008007,"MEAN_MOTION_DOT":0.00059071,"MEAN_MOTION_DDOT":0},{"OBJECT_NAME":"1998-067VS","OBJECT_ID":"1998-067VS","EPOCH":"2023-09-15T13:28:05.110464","MEAN_MOTION":15.63268395,"ECCENTRICITY":0.0006551,"INCLINATION":51.6319,"RA_OF_ASC_NODE":237.636,"ARG_OF_PERICENTER":85.2557,"MEAN_ANOMALY":274.9186,"EPHEMERIS_TYPE":0,"CLASSIFICATION_TYPE":"U","NORAD_CAT_ID":57314,"ELEMENT_SET_NO":999,"REV_AT_EPOCH":1108,"BSTAR":0.0015434,"MEAN_MOTION_DOT":0.00146603,"MEAN_MOTION_DDOT":0},{"OBJECT_NAME":"1998-067VT","OBJECT_ID":"1998-067VT","EPOCH":"2023-09-15T09:31:19.485120","MEAN_MOTION":15.57918836,"ECCENTRICITY":0.0006006,"INCLINATION":51.6365,"RA_OF_ASC_NODE":239.5506,"ARG_OF_PERICENTER":98.6709,"MEAN_ANOMALY":261.4964,"EPHEMERIS_TYPE":0,"CLASSIFICATION_TYPE":"U","NORAD_CAT_ID":57315,"ELEMENT_SET_NO":999,"REV_AT_EPOCH":1105,"BSTAR":0.0010554,"MEAN_MOTION_DOT":0.00080757,"MEAN_MOTION_DDOT":0},{"OBJECT_NAME":"MOONLIGHTER","OBJECT_ID":"1998-067VU","EPOCH":"2023-09-15T16:15:56.358432","MEAN_MOTION":15.58696219,"ECCENTRICITY":0.0006561,"INCLINATION":51.6373,"RA_OF_ASC_NODE":237.678,"ARG_OF_PERICENTER":75.3275,"MEAN_ANOMALY":284.8445,"EPHEMERIS_TYPE":0,"CLASSIFICATION_TYPE":"U","NORAD_CAT_ID":57316,"ELEMENT_SET_NO":999,"REV_AT_EPOCH":1109,"BSTAR":0.00039454,"MEAN_MOTION_DOT":0.00030581,"MEAN_MOTION_DDOT":0},{"OBJECT_NAME":"1998-067VV","OBJECT_ID":"1998-067VV","EPOCH":"2023-09-15T12:55:52.033152","MEAN_MOTION":15.60661623,"ECCENTRICITY":0.0007242,"INCLINATION":51.639,"RA_OF_ASC_NODE":238.2592,"ARG_OF_PERICENTER":91.4603,"MEAN_ANOMALY":268.722,"EPHEMERIS_TYPE":0,"CLASSIFICATION_TYPE":"U","NORAD_CAT_ID":57317,"ELEMENT_SET_NO":999,"REV_AT_EPOCH":1107,"BSTAR":0.00116,"MEAN_MOTION_DOT":0.00098861,"MEAN_MOTION_DDOT":0},{"OBJECT_NAME":"MAYA-5","OBJECT_ID":"1998-067VW","EPOCH":"2023-09-15T16:04:23.966976","MEAN_MOTION":15.58666422,"ECCENTRICITY":0.0008829,"INCLINATION":51.6362,"RA_OF_ASC_NODE":238.3692,"ARG_OF_PERICENTER":67.352,"MEAN_ANOMALY":292.8405,"EPHEMERIS_TYPE":0,"CLASSIFICATION_TYPE":"U","NORAD_CAT_ID":57419,"ELEMENT_SET_NO":999,"REV_AT_EPOCH":909,"BSTAR":0.00117,"MEAN_MOTION_DOT":0.00092368,"MEAN_MOTION_DDOT":0},{"OBJECT_NAME":"MAYA-6","OBJECT_ID":"1998-067VX","EPOCH":"2023-09-15T16:05:51.396864","MEAN_MOTION":15.58565175,"ECCENTRICITY":0.0008789,"INCLINATION":51.6355,"RA_OF_ASC_NODE":238.3753,"ARG_OF_PERICENTER":66.7877,"MEAN_ANOMALY":293.404,"EPHEMERIS_TYPE":0,"CLASSIFICATION_TYPE":"U","NORAD_CAT_ID":57420,"ELEMENT_SET_NO":999,"REV_AT_EPOCH":909,"BSTAR":0.0011312,"MEAN_MOTION_DOT":0.00088906,"MEAN_MOTION_DDOT":0},{"OBJECT_NAME":"CYGNUS NG-19","OBJECT_ID":"2023-110A","EPOCH":"2023-09-15T09:57:44.907840","MEAN_MOTION":15.49298881,"ECCENTRICITY":0.0005745,"INCLINATION":51.6411,"RA_OF_ASC_NODE":241.5794,"ARG_OF_PERICENTER":20.8373,"MEAN_ANOMALY":139.0145,"EPHEMERIS_TYPE":0,"CLASSIFICATION_TYPE":"U","NORAD_CAT_ID":57488,"ELEMENT_SET_NO":999,"REV_AT_EPOCH":41578,"BSTAR":0.00032632,"MEAN_MOTION_DOT":0.00017764,"MEAN_MOTION_DDOT":0},{"OBJECT_NAME":"PROGRESS-MS 24","OBJECT_ID":"2023-125A","EPOCH":"2023-09-15T09:57:44.907840","MEAN_MOTION":15.49298881,"ECCENTRICITY":0.0005745,"INCLINATION":51.6411,"RA_OF_ASC_NODE":241.5794,"ARG_OF_PERICENTER":20.8373,"MEAN_ANOMALY":139.0145,"EPHEMERIS_TYPE":0,"CLASSIFICATION_TYPE":"U","NORAD_CAT_ID":57691,"ELEMENT_SET_NO":999,"REV_AT_EPOCH":41578,"BSTAR":0.00032632,"MEAN_MOTION_DOT":0.00017764,"MEAN_MOTION_DDOT":0},{"OBJECT_NAME":"CREW DRAGON 7","OBJECT_ID":"2023-128A","EPOCH":"2023-09-15T09:57:44.907840","MEAN_MOTION":15.49298881,"ECCENTRICITY":0.0005745,"INCLINATION":51.6411,"RA_OF_ASC_NODE":241.5794,"ARG_OF_PERICENTER":20.8373,"MEAN_ANOMALY":139.0145,"EPHEMERIS_TYPE":0,"CLASSIFICATION_TYPE":"U","NORAD_CAT_ID":57697,"ELEMENT_SET_NO":999,"REV_AT_EPOCH":41578,"BSTAR":0.00032632,"MEAN_MOTION_DOT":0.00017764,"MEAN_MOTION_DDOT":0},{"OBJECT_NAME":"SOYUZ-MS 24","OBJECT_ID":"2023-143A","EPOCH":"2023-09-15T16:14:28.945824","MEAN_MOTION":16.22539595,"ECCENTRICITY":0.0023669,"INCLINATION":51.6485,"RA_OF_ASC_NODE":240.317,"ARG_OF_PERICENTER":86.8513,"MEAN_ANOMALY":81.1085,"EPHEMERIS_TYPE":0,"CLASSIFICATION_TYPE":"U","NORAD_CAT_ID":57862,"ELEMENT_SET_NO":999,"REV_AT_EPOCH":0,"BSTAR":0,"MEAN_MOTION_DOT":-3.777e-5,"MEAN_MOTION_DDOT":1.1942e-5},{"OBJECT_NAME":"SL-4 R\/B","OBJECT_ID":"2023-143B","EPOCH":"2023-09-15T16:13:04.246176","MEAN_MOTION":16.23259343,"ECCENTRICITY":0.0029251,"INCLINATION":51.659,"RA_OF_ASC_NODE":240.3927,"ARG_OF_PERICENTER":72.6541,"MEAN_ANOMALY":89.4302,"EPHEMERIS_TYPE":0,"CLASSIFICATION_TYPE":"U","NORAD_CAT_ID":57863,"ELEMENT_SET_NO":999,"REV_AT_EPOCH":0,"BSTAR":0,"MEAN_MOTION_DOT":-3.784e-5,"MEAN_MOTION_DDOT":1.1965e-5}]
