TIANZHOU-6              
1 56446U 23063A   23258.46697371  .00029249  00000+0  32414-3 0  9994
2 56446  41.4746 326.7477 0008583  21.4798 338.6400 15.62277228135942
PROGRESS-MS 23          
1 56740U 23071A   23258.41510310  .00017764  00000+0  32632-3 0  9993
2 56740  51.6411 241.5794 0005745  20.8373 139.0145 15.49298881415781
SHENZHOU-16 (SZ-16)     
1 56761U 23077A   23258.46697371  .00029249  00000+0  32414-3 0  9999
2 56761  41.4746 326.7477 0008583  21.4798 338.6400 15.62277228135942
ISS DEB                 
1 57212U 98067VP  23258.25533164  .00037981  00000+0  56532-3 0  9997
2 57212  51.6372 240.8570 0006505  41.6905 318.4580 15.54729312 12719
1998-067VQ              
1 57312U 98067VQ  23258.65711010  .00065944  00000+0  86897-3 0  9997
2 57312  51.6371 238.2926 0005600  98.3630 261.7997 15.57786895 11087
1998-067VR              
1 57313U 98067VR  23258.66953611  .00059071  00000+0  80070-3 0  9995
2 57313  51.6374 238.3762 0003465  92.9930 267.1458 15.57086910 11094
1998-067VS              
1 57314U 98067VS  23258.56117026  .00146603  00000+0  15434-2 0  9996
2 57314  51.6319 237.6360 0006551  85.2557 274.9186 15.63268395 11088
1998-067VT              
1 57315U 98067VT  23258.39675330  .00080757  00000+0  10554-2 0  9990
2 57315  51.6365 239.5506 0006006  98.6709 261.4964 15.57918836 11052
MOONLIGHTER             
1 57316U 98067VU  23258.67773563  .00030581  00000+0  39454-3 0  9990
2 57316  51.6373 237.6780 0006561  75.3275 284.8445 15.58696219 11097
1998-067VV              
1 57317U 98067VV  23258.53879668  .00098861  00000+0  11600-2 0  9996
2 57317  51.6390 238.2592 0007242  91.4603 268.7220 15.60661623 11070
MAYA-5                  
1 57419U 98067VW  23258.66972184  .00092368  00000+0  11700-2 0  9997
2 57419  51.6362 238.3692 0008829  67.3520 292.8405 15.58666422  9097
MAYA-6                  
1 57420U 98067VX  23258.67073376  .00088906  00000+0  11312-2 0  9997
2 57420  51.6355 238.3753 0008789  66.7877 293.4040 15.58565175  9097
CYGNUS NG-19            
1 57488U 23110A   23258.41510310  .00017764  00000+0  32632-3 0  9997
2 57488  51.6411 241.5794 0005745  20.8373 139.0145 15.49298881415781
PROGRESS-MS 24          
1 57691U 23125A   23258.41510310  .00017764  00000+0  32632-3 0  9999
2 57691  51.6411 241.5794 0005745  20.8373 139.0145 15.49298881415787
CREW DRAGON 7           
1 57697U 23128A   23258.41510310  .00017764  00000+0  32632-3 0  9998
2 57697  51.6411 241.5794 0005745  20.8373 139.0145 15.49298881415783
SOYUZ-MS 24             
1 57862U 23143A   23258.67672391 -.00003777  11942-4  00000+0 0  9997
2 57862  51.6485 240.3170 0023669  86.8513  81.1085 16.22539595    03
SL-4 R/B                
1 57863U 23143B   23258.67574359 -.00003784  11965-4  00000+0 0  9996
2 57863  51.6590 240.3927 0029251  72.6541  89.4302 16.23259343    02
